[{"OBJECT_NAME":"VIASAT-3 F1","OBJECT_ID":"2023-060A","EPOCH":"2026-04-27T01:07:28.248672","MEAN_MOTION":1.00271212,"ECCENTRICITY":0.0001104,"INCLINATION":0.0169,"RA_OF_ASC_NODE":278.7228,"ARG_OF_PERICENTER":166.2945,"MEAN_ANOMALY":57.9937,"EPHEMERIS_TYPE":0,"CLASSIFICATION_TYPE":"U","NORAD_CAT_ID":56370,"ELEMENT_SET_NO":999,"REV_AT_EPOCH":1092,"BSTAR":0,"MEAN_MOTION_DOT":-1.96e-6,"MEAN_MOTION_DDOT":0},{"OBJECT_NAME":"ARCTURUS","OBJECT_ID":"2023-060B","EPOCH":"2026-04-26T23:16:45.560064","MEAN_MOTION":1.00269907,"ECCENTRICITY":0.0001623,"INCLINATION":2.6442,"RA_OF_ASC_NODE":80.5687,"ARG_OF_PERICENTER":358.0152,"MEAN_ANOMALY":198.0876,"EPHEMERIS_TYPE":0,"CLASSIFICATION_TYPE":"U","NORAD_CAT_ID":56371,"ELEMENT_SET_NO":999,"REV_AT_EPOCH":1094,"BSTAR":0,"MEAN_MOTION_DOT":-7.1e-7,"MEAN_MOTION_DDOT":0},{"OBJECT_NAME":"GS-1","OBJECT_ID":"2023-060C","EPOCH":"2026-04-26T21:03:38.545344","MEAN_MOTION":1.00288335,"ECCENTRICITY":0.00044506,"INCLINATION":2.5944,"RA_OF_ASC_NODE":80.4043,"ARG_OF_PERICENTER":274.4448,"MEAN_ANOMALY":263.5069,"EPHEMERIS_TYPE":0,"CLASSIFICATION_TYPE":"U","NORAD_CAT_ID":56372,"ELEMENT_SET_NO":999,"REV_AT_EPOCH":702,"BSTAR":0,"MEAN_MOTION_DOT":-2.2e-6,"MEAN_MOTION_DDOT":0},{"OBJECT_NAME":"BEIDOU-3 G4","OBJECT_ID":"2023-066A","EPOCH":"2026-04-27T11:19:30.977184","MEAN_MOTION":1.00272248,"ECCENTRICITY":0.0002857,"INCLINATION":0.5561,"RA_OF_ASC_NODE":320.1476,"ARG_OF_PERICENTER":159.8914,"MEAN_ANOMALY":45.3872,"EPHEMERIS_TYPE":0,"CLASSIFICATION_TYPE":"U","NORAD_CAT_ID":56564,"ELEMENT_SET_NO":999,"REV_AT_EPOCH":1088,"BSTAR":0,"MEAN_MOTION_DOT":-2.91e-6,"MEAN_MOTION_DDOT":0},{"OBJECT_NAME":"ARABSAT-7B (BADR-8)","OBJECT_ID":"2023-075A","EPOCH":"2026-04-27T08:47:38.636160","MEAN_MOTION":1.00272856,"ECCENTRICITY":0.0005085,"INCLINATION":0.0807,"RA_OF_ASC_NODE":34.8093,"ARG_OF_PERICENTER":336.4763,"MEAN_ANOMALY":1.9835,"EPHEMERIS_TYPE":0,"CLASSIFICATION_TYPE":"U","NORAD_CAT_ID":56757,"ELEMENT_SET_NO":999,"REV_AT_EPOCH":1060,"BSTAR":0,"MEAN_MOTION_DOT":1.35e-6,"MEAN_MOTION_DDOT":0},{"OBJECT_NAME":"NVS-01 (IRNSS-1J)","OBJECT_ID":"2023-076A","EPOCH":"2026-04-27T11:23:53.610720","MEAN_MOTION":1.00268169,"ECCENTRICITY":0.0005374,"INCLINATION":2.2854,"RA_OF_ASC_NODE":246.5344,"ARG_OF_PERICENTER":50.3148,"MEAN_ANOMALY":219.0984,"EPHEMERIS_TYPE":0,"CLASSIFICATION_TYPE":"U","NORAD_CAT_ID":56759,"ELEMENT_SET_NO":999,"REV_AT_EPOCH":1060,"BSTAR":0,"MEAN_MOTION_DOT":-3.47e-6,"MEAN_MOTION_DDOT":0},{"OBJECT_NAME":"NUSANTARA TIGA (SATRIA)","OBJECT_ID":"2023-086A","EPOCH":"2026-04-27T10:26:38.741568","MEAN_MOTION":1.00271136,"ECCENTRICITY":0.0004949,"INCLINATION":0.0475,"RA_OF_ASC_NODE":314.1425,"ARG_OF_PERICENTER":23.5756,"MEAN_ANOMALY":180.3698,"EPHEMERIS_TYPE":0,"CLASSIFICATION_TYPE":"U","NORAD_CAT_ID":57045,"ELEMENT_SET_NO":999,"REV_AT_EPOCH":925,"BSTAR":0,"MEAN_MOTION_DOT":-2.44e-6,"MEAN_MOTION_DDOT":0},{"OBJECT_NAME":"FALCON 9 R/B","OBJECT_ID":"2023-086B","EPOCH":"2026-04-27T06:24:45.983232","MEAN_MOTION":1.46548938,"ECCENTRICITY":0.780004,"INCLINATION":26.7343,"RA_OF_ASC_NODE":221.3464,"ARG_OF_PERICENTER":163.4736,"MEAN_ANOMALY":256.4078,"EPHEMERIS_TYPE":0,"CLASSIFICATION_TYPE":"U","NORAD_CAT_ID":57046,"ELEMENT_SET_NO":999,"REV_AT_EPOCH":1489,"BSTAR":-0.027104,"MEAN_MOTION_DOT":-6.44e-6,"MEAN_MOTION_DDOT":0},{"OBJECT_NAME":"H2SAT (HEINRICH HERTZ)","OBJECT_ID":"2023-093A","EPOCH":"2026-04-27T05:20:38.796864","MEAN_MOTION":1.00270609,"ECCENTRICITY":0.00010013,"INCLINATION":0.0173,"RA_OF_ASC_NODE":229.481,"ARG_OF_PERICENTER":262.3438,"MEAN_ANOMALY":164.2527,"EPHEMERIS_TYPE":0,"CLASSIFICATION_TYPE":"U","NORAD_CAT_ID":57213,"ELEMENT_SET_NO":999,"REV_AT_EPOCH":1040,"BSTAR":0,"MEAN_MOTION_DOT":0,"MEAN_MOTION_DDOT":0},{"OBJECT_NAME":"SYRACUSE 4B","OBJECT_ID":"2023-093B","EPOCH":"2026-04-27T05:28:38.743680","MEAN_MOTION":1.0026953,"ECCENTRICITY":2.552e-5,"INCLINATION":0.0141,"RA_OF_ASC_NODE":232.8214,"ARG_OF_PERICENTER":206.7453,"MEAN_ANOMALY":211.3567,"EPHEMERIS_TYPE":0,"CLASSIFICATION_TYPE":"U","NORAD_CAT_ID":57214,"ELEMENT_SET_NO":999,"REV_AT_EPOCH":645,"BSTAR":0,"MEAN_MOTION_DOT":0,"MEAN_MOTION_DDOT":0},{"OBJECT_NAME":"JUPITER 3 (ECHOSTAR 24)","OBJECT_ID":"2023-108A","EPOCH":"2026-04-26T16:02:14.591616","MEAN_MOTION":1.00269999,"ECCENTRICITY":0.00010548,"INCLINATION":0.0177,"RA_OF_ASC_NODE":241.9086,"ARG_OF_PERICENTER":161.8593,"MEAN_ANOMALY":316.2405,"EPHEMERIS_TYPE":0,"CLASSIFICATION_TYPE":"U","NORAD_CAT_ID":57479,"ELEMENT_SET_NO":999,"REV_AT_EPOCH":1012,"BSTAR":0,"MEAN_MOTION_DOT":0,"MEAN_MOTION_DDOT":0},{"OBJECT_NAME":"FALCON HEAVY R/B","OBJECT_ID":"2023-108B","EPOCH":"2026-04-26T13:08:03.022944","MEAN_MOTION":1.84352886,"ECCENTRICITY":0.49443709,"INCLINATION":11.2326,"RA_OF_ASC_NODE":98.464,"ARG_OF_PERICENTER":21.7527,"MEAN_ANOMALY":353.4636,"EPHEMERIS_TYPE":0,"CLASSIFICATION_TYPE":"U","NORAD_CAT_ID":57480,"ELEMENT_SET_NO":999,"REV_AT_EPOCH":1849,"BSTAR":0,"MEAN_MOTION_DOT":-3.6e-7,"MEAN_MOTION_DDOT":0},{"OBJECT_NAME":"GALAXY 37 (G-37)","OBJECT_ID":"2023-112A","EPOCH":"2026-04-27T11:07:40.376064","MEAN_MOTION":1.00270539,"ECCENTRICITY":0.0002216,"INCLINATION":0.0124,"RA_OF_ASC_NODE":245.9151,"ARG_OF_PERICENTER":150.0747,"MEAN_ANOMALY":219.3812,"EPHEMERIS_TYPE":0,"CLASSIFICATION_TYPE":"U","NORAD_CAT_ID":57493,"ELEMENT_SET_NO":999,"REV_AT_EPOCH":1003,"BSTAR":0,"MEAN_MOTION_DOT":0,"MEAN_MOTION_DDOT":0},{"OBJECT_NAME":"ATLAS 5 CENTAUR DEB","OBJECT_ID":"2018-079HN","EPOCH":"2026-04-24T02:12:37.833120","MEAN_MOTION":1.77533054,"ECCENTRICITY":0.46949681,"INCLINATION":13.556,"RA_OF_ASC_NODE":45.9338,"ARG_OF_PERICENTER":287.303,"MEAN_ANOMALY":27.9005,"EPHEMERIS_TYPE":0,"CLASSIFICATION_TYPE":"U","NORAD_CAT_ID":57587,"ELEMENT_SET_NO":999,"REV_AT_EPOCH":2168,"BSTAR":0,"MEAN_MOTION_DOT":-1.04e-6,"MEAN_MOTION_DDOT":0},{"OBJECT_NAME":"ATLAS 5 CENTAUR DEB","OBJECT_ID":"2018-079HR","EPOCH":"2026-04-24T19:17:28.033152","MEAN_MOTION":1.56214311,"ECCENTRICITY":0.49267895,"INCLINATION":11.955,"RA_OF_ASC_NODE":92.5801,"ARG_OF_PERICENTER":192.9554,"MEAN_ANOMALY":147.4615,"EPHEMERIS_TYPE":0,"CLASSIFICATION_TYPE":"U","NORAD_CAT_ID":57590,"ELEMENT_SET_NO":999,"REV_AT_EPOCH":2562,"BSTAR":0,"MEAN_MOTION_DOT":-6.0e-7,"MEAN_MOTION_DDOT":0},{"OBJECT_NAME":"ATLAS 5 CENTAUR DEB","OBJECT_ID":"2018-079HW","EPOCH":"2026-04-26T22:26:28.077216","MEAN_MOTION":1.69241801,"ECCENTRICITY":0.4670828,"INCLINATION":12.6377,"RA_OF_ASC_NODE":76.222,"ARG_OF_PERICENTER":232.74,"MEAN_ANOMALY":74.9348,"EPHEMERIS_TYPE":0,"CLASSIFICATION_TYPE":"U","NORAD_CAT_ID":57595,"ELEMENT_SET_NO":999,"REV_AT_EPOCH":2740,"BSTAR":0,"MEAN_MOTION_DOT":-6.3e-7,"MEAN_MOTION_DDOT":0},{"OBJECT_NAME":"LUDI TANCE-4 01A","OBJECT_ID":"2023-120A","EPOCH":"2026-04-27T04:56:21.526944","MEAN_MOTION":1.00267924,"ECCENTRICITY":0.0002883,"INCLINATION":15.1333,"RA_OF_ASC_NODE":195.2283,"ARG_OF_PERICENTER":114.7647,"MEAN_ANOMALY":68.7654,"EPHEMERIS_TYPE":0,"CLASSIFICATION_TYPE":"U","NORAD_CAT_ID":57624,"ELEMENT_SET_NO":999,"REV_AT_EPOCH":1003,"BSTAR":0,"MEAN_MOTION_DOT":-1.98e-6,"MEAN_MOTION_DDOT":0},{"OBJECT_NAME":"TJS-10","OBJECT_ID":"2023-169A","EPOCH":"2026-04-26T17:25:12.302112","MEAN_MOTION":1.00459017,"ECCENTRICITY":0.0001551,"INCLINATION":2.4137,"RA_OF_ASC_NODE":81.0758,"ARG_OF_PERICENTER":49.7885,"MEAN_ANOMALY":75.7719,"EPHEMERIS_TYPE":0,"CLASSIFICATION_TYPE":"U","NORAD_CAT_ID":58204,"ELEMENT_SET_NO":999,"REV_AT_EPOCH":902,"BSTAR":0,"MEAN_MOTION_DOT":-2.79e-6,"MEAN_MOTION_DDOT":0},{"OBJECT_NAME":"ZHONGXING-6E","OBJECT_ID":"2023-172A","EPOCH":"2026-04-27T00:23:02.510592","MEAN_MOTION":1.00270582,"ECCENTRICITY":0.00031241,"INCLINATION":0.0451,"RA_OF_ASC_NODE":81.0345,"ARG_OF_PERICENTER":316.9726,"MEAN_ANOMALY":298.2811,"EPHEMERIS_TYPE":0,"CLASSIFICATION_TYPE":"U","NORAD_CAT_ID":58253,"ELEMENT_SET_NO":999,"REV_AT_EPOCH":914,"BSTAR":0,"MEAN_MOTION_DOT":-3.72e-6,"MEAN_MOTION_DDOT":0},{"OBJECT_NAME":"YAOGAN-41","OBJECT_ID":"2023-197A","EPOCH":"2026-04-27T12:27:30.787776","MEAN_MOTION":1.00272328,"ECCENTRICITY":0.0012658,"INCLINATION":3.2218,"RA_OF_ASC_NODE":312.387,"ARG_OF_PERICENTER":184.713,"MEAN_ANOMALY":28.5317,"EPHEMERIS_TYPE":0,"CLASSIFICATION_TYPE":"U","NORAD_CAT_ID":58582,"ELEMENT_SET_NO":999,"REV_AT_EPOCH":881,"BSTAR":0,"MEAN_MOTION_DOT":-3.77e-6,"MEAN_MOTION_DDOT":0},{"OBJECT_NAME":"ARKTIKA-M 2","OBJECT_ID":"2023-198A","EPOCH":"2026-04-20T22:18:36.192384","MEAN_MOTION":2.00586979,"ECCENTRICITY":0.69533035,"INCLINATION":63.2192,"RA_OF_ASC_NODE":160.7194,"ARG_OF_PERICENTER":267.0904,"MEAN_ANOMALY":18.471,"EPHEMERIS_TYPE":0,"CLASSIFICATION_TYPE":"U","NORAD_CAT_ID":58584,"ELEMENT_SET_NO":999,"REV_AT_EPOCH":1717,"BSTAR":0,"MEAN_MOTION_DOT":2.17e-6,"MEAN_MOTION_DDOT":0},{"OBJECT_NAME":"FREGAT R/B","OBJECT_ID":"2023-198B","EPOCH":"2026-04-27T00:30:04.588416","MEAN_MOTION":1.99057341,"ECCENTRICITY":0.69360102,"INCLINATION":63.2415,"RA_OF_ASC_NODE":159.7244,"ARG_OF_PERICENTER":266.51,"MEAN_ANOMALY":18.8481,"EPHEMERIS_TYPE":0,"CLASSIFICATION_TYPE":"U","NORAD_CAT_ID":58585,"ELEMENT_SET_NO":999,"REV_AT_EPOCH":1718,"BSTAR":0,"MEAN_MOTION_DOT":-1.005e-5,"MEAN_MOTION_DDOT":0},{"OBJECT_NAME":"OVZON-3","OBJECT_ID":"2024-003A","EPOCH":"2026-04-27T03:10:38.767296","MEAN_MOTION":1.00273919,"ECCENTRICITY":1.5e-5,"INCLINATION":0.0128,"RA_OF_ASC_NODE":191.8183,"ARG_OF_PERICENTER":99.765,"MEAN_ANOMALY":30.8951,"EPHEMERIS_TYPE":0,"CLASSIFICATION_TYPE":"U","NORAD_CAT_ID":58698,"ELEMENT_SET_NO":999,"REV_AT_EPOCH":693,"BSTAR":0,"MEAN_MOTION_DOT":4.1e-7,"MEAN_MOTION_DDOT":0},{"OBJECT_NAME":"FALCON 9 R/B","OBJECT_ID":"2024-003B","EPOCH":"2026-04-27T02:41:49.836768","MEAN_MOTION":1.74385542,"ECCENTRICITY":0.77127733,"INCLINATION":26.7785,"RA_OF_ASC_NODE":69.103,"ARG_OF_PERICENTER":196.1656,"MEAN_ANOMALY":106.7402,"EPHEMERIS_TYPE":0,"CLASSIFICATION_TYPE":"U","NORAD_CAT_ID":58699,"ELEMENT_SET_NO":999,"REV_AT_EPOCH":1430,"BSTAR":0.00078034857,"MEAN_MOTION_DOT":7.48e-6,"MEAN_MOTION_DDOT":0}]
